*******************************************************************************
 Revised: July 31, 2013             Moon / (Earth)                          301
 
 GEOPHYSICAL DATA (updated 2018-Aug-15):
  Vol. mean radius, km  = 1737.53+-0.03    Mass, x10^22 kg       =    7.349
  Radius (gravity), km  = 1738.0           Surface emissivity    =    0.92
  Radius (IAU), km      = 1737.4           GM, km^3/s^2          = 4902.800066
  Density, g/cm^3       =    3.3437        GM 1-sigma, km^3/s^2  =  +-0.0001  
  V(1,0)                =   +0.21          Surface accel., m/s^2 =    1.62
  Earth/Moon mass ratio = 81.3005690769    Farside crust. thick. = ~80 - 90 km
  Mean crustal density  = 2.97+-.07 g/cm^3 Nearside crust. thick.= 58+-8 km 
  Heat flow, Apollo 15  = 3.1+-.6 mW/m^2   Mean angular diameter = 31'05.2"
  Heat flow, Apollo 17  = 2.2+-.5 mW/m^2   Sid. rot. rate, rad/s = 0.0000026617
  Geometric Albedo      = 0.12             Mean solar day        = 29.5306 d
  Obliquity to orbit    = 6.67 deg         Orbit period          = 27.321582 d
  Semi-major axis, a    = 384400 km        Eccentricity          = 0.05490
  Mean motion, rad/s    = 2.6616995x10^-6  Inclination           = 5.145 deg
  Apsidal period        = 3231.50 d        Nodal period          = 6798.38 d
                                 Perihelion  Aphelion    Mean
  Solar Constant (W/m^2)         1414+-7     1323+-7     1368+-7
  Maximum Planetary IR (W/m^2)   1314        1226        1268
  Minimum Planetary IR (W/m^2)      5.2         5.2         5.2
********************************************************************************


*******************************************************************************
Ephemeris / WWW_USER Mon Nov 28 15:43:21 2022 Pasadena, USA      / Horizons
*******************************************************************************
Target body name: Moon (301)                      {source: DE441}
Center body name: Earth (399)                     {source: DE441}
Center-site name: BODY CENTER
*******************************************************************************
Start time      : A.D. 1980-Jan-01 00:00:00.0000 TDB
Stop  time      : A.D. 2020-Jan-01 00:00:00.0000 TDB
Step-size       : 14400 minutes
*******************************************************************************
Center geodetic : 0.00000000,0.00000000,0.0000000 {E-lon(deg),Lat(deg),Alt(km)}
Center cylindric: 0.00000000,0.00000000,0.0000000 {E-lon(deg),Dxy(km),Dz(km)}
Center radii    : 6378.1 x 6378.1 x 6356.8 km     {Equator, meridian, pole}    
Output units    : AU-D
Output type     : GEOMETRIC cartesian states
Output format   : 1 (position only)
EOP file        : eop.221110.p230202
EOP coverage    : DATA-BASED 1962-JAN-20 TO 2022-NOV-10. PREDICTS-> 2023-FEB-01
Reference frame : Ecliptic of J2000.0
*******************************************************************************
JDTDB
   X     Y     Z
*******************************************************************************
$$SOE
2444239.500000000 = A.D. 1980-Jan-01 00:00:00.0000 TDB [del_T=     50.183943 s]
 X = 2.933885115037269E-04 Y = 2.548089217100338E-03 Z =-2.114565181103139E-04
2444249.500000000 = A.D. 1980-Jan-11 00:00:00.0000 TDB [del_T=     51.184228 s]
 X =-2.402738321923644E-03 Y =-1.159768496382586E-03 Z = 1.995791693769874E-04
2444259.500000000 = A.D. 1980-Jan-21 00:00:00.0000 TDB [del_T=     51.184510 s]
 X = 2.322535076031467E-03 Y =-7.200044664067386E-04 Z =-5.015888795066496E-05
2444269.500000000 = A.D. 1980-Jan-31 00:00:00.0000 TDB [del_T=     51.184774 s]
 X =-1.248767787711715E-03 Y = 2.334994043950902E-03 Z =-1.270299954806932E-04
2444279.500000000 = A.D. 1980-Feb-10 00:00:00.0000 TDB [del_T=     51.185014 s]
 X =-1.363495316903336E-03 Y =-2.227252984349525E-03 Z = 2.418713133746907E-04
2444289.500000000 = A.D. 1980-Feb-20 00:00:00.0000 TDB [del_T=     51.185227 s]
 X = 2.261827279128583E-03 Y = 8.886477550108724E-04 Z =-1.773339186365325E-04
2444299.500000000 = A.D. 1980-Mar-01 00:00:00.0000 TDB [del_T=     51.185399 s]
 X =-2.371075774659348E-03 Y = 1.296921568948261E-03 Z = 7.499577481789142E-06
2444309.500000000 = A.D. 1980-Mar-11 00:00:00.0000 TDB [del_T=     51.185528 s]
 X = 1.337993216754409E-04 Y =-2.543162767872167E-03 Z = 1.952705193070261E-04
2444319.500000000 = A.D. 1980-Mar-21 00:00:00.0000 TDB [del_T=     51.185616 s]
 X = 1.265407520712297E-03 Y = 2.124628474831112E-03 Z =-2.257983970650418E-04
2444329.500000000 = A.D. 1980-Mar-31 00:00:00.0000 TDB [del_T=     51.185651 s]
 X =-2.705971521786106E-03 Y =-1.803451679353393E-04 Z = 1.397435150739232E-04
2444339.500000000 = A.D. 1980-Apr-10 00:00:00.0000 TDB [del_T=     51.185637 s]
 X = 1.581444801536557E-03 Y =-1.920407470728291E-03 Z = 7.172124122751694E-05
2444349.500000000 = A.D. 1980-Apr-20 00:00:00.0000 TDB [del_T=     51.185580 s]
 X =-2.299208571486474E-04 Y = 2.537613805517323E-03 Z =-1.790645490702702E-04
2444359.500000000 = A.D. 1980-Apr-30 00:00:00.0000 TDB [del_T=     51.185472 s]
 X =-2.151438057704287E-03 Y =-1.593907676002529E-03 Z = 2.208138373709503E-04
2444369.500000000 = A.D. 1980-May-10 00:00:00.0000 TDB [del_T=     51.185322 s]
 X = 2.392409108536978E-03 Y =-5.206925859702718E-04 Z =-8.110784439443626E-05
2444379.500000000 = A.D. 1980-May-20 00:00:00.0000 TDB [del_T=     51.185137 s]
 X =-1.655778544771696E-03 Y = 2.038416708515131E-03 Z =-6.121682071276121E-05
2444389.500000000 = A.D. 1980-May-30 00:00:00.0000 TDB [del_T=     51.184916 s]
 X =-8.830764785510006E-04 Y =-2.459323745723621E-03 Z = 2.195621405710133E-04
2444399.500000000 = A.D. 1980-Jun-09 00:00:00.0000 TDB [del_T=     51.184670 s]
 X = 2.180860477166179E-03 Y = 1.109299745974496E-03 Z =-1.952935163939163E-04
2444409.500000000 = A.D. 1980-Jun-19 00:00:00.0000 TDB [del_T=     51.184408 s]
 X =-2.540455732935669E-03 Y = 8.520102149269983E-04 Z = 8.071009585695481E-05
2444419.500000000 = A.D. 1980-Jun-29 00:00:00.0000 TDB [del_T=     51.184130 s]
 X = 6.757081439309373E-04 Y =-2.443591851983587E-03 Z = 1.330920269354597E-04
2444429.500000000 = A.D. 1980-Jul-09 00:00:00.0000 TDB [del_T=     51.183850 s]
 X = 1.023816857773237E-03 Y = 2.273877508753234E-03 Z =-2.188759948974933E-04
2444439.500000000 = A.D. 1980-Jul-19 00:00:00.0000 TDB [del_T=     51.183578 s]
 X =-2.624972012640073E-03 Y =-6.137524775313627E-04 Z = 1.964425514634190E-04
2444449.500000000 = A.D. 1980-Jul-29 00:00:00.0000 TDB [del_T=     51.183313 s]
 X = 1.948493488687734E-03 Y =-1.502200500636357E-03 Z =-7.601309508240729E-06
2444459.500000000 = A.D. 1980-Aug-08 00:00:00.0000 TDB [del_T=     51.183070 s]
 X =-5.706275789390689E-04 Y = 2.509725851796425E-03 Z =-1.453527636681136E-04
2444469.500000000 = A.D. 1980-Aug-18 00:00:00.0000 TDB [del_T=     51.182856 s]
 X =-1.891743185732833E-03 Y =-1.895200342728068E-03 Z = 2.465396987144407E-04
2444479.500000000 = A.D. 1980-Aug-28 00:00:00.0000 TDB [del_T=     51.182670 s]
 X = 2.408018246033645E-03 Y = 3.262828167736131E-05 Z =-1.435890481154513E-04
2444489.500000000 = A.D. 1980-Sep-07 00:00:00.0000 TDB [del_T=     51.182525 s]
 X =-1.963094304885808E-03 Y = 1.783281404010849E-03 Z =-1.138519324804067E-05
2444499.500000000 = A.D. 1980-Sep-17 00:00:00.0000 TDB [del_T=     51.182424 s]
 X =-5.543628398868028E-04 Y =-2.576024410431945E-03 Z = 2.116450554561110E-04
2444509.500000000 = A.D. 1980-Sep-27 00:00:00.0000 TDB [del_T=     51.182365 s]
 X = 1.846452231745951E-03 Y = 1.536385602638552E-03 Z =-2.129125729993124E-04
2444519.500000000 = A.D. 1980-Oct-07 00:00:00.0000 TDB [del_T=     51.182357 s]
 X =-2.667668114127034E-03 Y = 4.178944853547746E-04 Z = 1.270775378995065E-04
2444529.500000000 = A.D. 1980-Oct-17 00:00:00.0000 TDB [del_T=     51.182399 s]
 X = 9.712976196709864E-04 Y =-2.386499189923278E-03 Z = 9.944546210104782E-05
2444539.500000000 = A.D. 1980-Oct-27 00:00:00.0000 TDB [del_T=     51.182484 s]
 X = 5.157110515984201E-04 Y = 2.393779681313731E-03 Z =-1.848867349796518E-04
2444549.500000000 = A.D. 1980-Nov-06 00:00:00.0000 TDB [del_T=     51.182618 s]
 X =-2.479762929736410E-03 Y =-1.087485976165186E-03 Z = 2.184142418414750E-04
2444559.500000000 = A.D. 1980-Nov-16 00:00:00.0000 TDB [del_T=     51.182796 s]
 X = 2.139709231737385E-03 Y =-1.318524316065989E-03 Z =-5.171194755796537E-05
2444569.500000000 = A.D. 1980-Nov-26 00:00:00.0000 TDB [del_T=     51.183006 s]
 X =-1.023763145175832E-03 Y = 2.310233738141303E-03 Z =-7.572851208727558E-05
2444579.500000000 = A.D. 1980-Dec-06 00:00:00.0000 TDB [del_T=     51.183250 s]
 X =-1.488365391376609E-03 Y =-2.226373550351265E-03 Z = 2.306956669508189E-04
2444589.500000000 = A.D. 1980-Dec-16 00:00:00.0000 TDB [del_T=     51.183518 s]
 X = 2.449859210193731E-03 Y = 2.802642624245842E-04 Z =-1.799384624408007E-04
2444599.500000000 = A.D. 1980-Dec-26 00:00:00.0000 TDB [del_T=     51.183797 s]
 X =-2.205955524318937E-03 Y = 1.385781740889244E-03 Z = 6.620063519452165E-05
2444609.500000000 = A.D. 1981-Jan-05 00:00:00.0000 TDB [del_T=     51.184086 s]
 X =-2.872378339722637E-05 Y =-2.618583890048830E-03 Z = 1.597276871040102E-04
2444619.500000000 = A.D. 1981-Jan-15 00:00:00.0000 TDB [del_T=     51.184373 s]
 X = 1.714447424357792E-03 Y = 1.764995761632370E-03 Z =-2.258053320333973E-04
2444629.500000000 = A.D. 1981-Jan-25 00:00:00.0000 TDB [del_T=     51.184645 s]
 X =-2.662886112362598E-03 Y =-1.798715281955124E-05 Z = 1.865647036922181E-04
2444639.500000000 = A.D. 1981-Feb-04 00:00:00.0000 TDB [del_T=     51.184901 s]
 X = 1.407300747976530E-03 Y =-2.112848568523669E-03 Z = 3.065732001831712E-05
2444649.500000000 = A.D. 1981-Feb-14 00:00:00.0000 TDB [del_T=     51.185129 s]
 X = 2.311600945394971E-04 Y = 2.494720823085080E-03 Z =-1.674535106396352E-04
2444659.500000000 = A.D. 1981-Feb-24 00:00:00.0000 TDB [del_T=     51.185320 s]
 X =-2.276844253078090E-03 Y =-1.438841827608633E-03 Z = 2.436363233222335E-04
2444669.500000000 = A.D. 1981-Mar-06 00:00:00.0000 TDB [del_T=     51.185474 s]
 X = 2.300897356098218E-03 Y =-8.521033919414899E-04 Z =-1.075069810603307E-04
